CCSDS_OMM_VERS = 2.0
CREATION_DATE  = 
ORIGINATOR     = 

OBJECT_NAME    = ATLAS CENTAUR 2
OBJECT_ID      = 1963-047A
CENTER_NAME    = EARTH
REF_FRAME      = TEME
TIME_SYSTEM    = UTC
MEAN_ELEMENT_THEORY = SGP/SGP4

EPOCH          = 2026-01-03T13:43:09.772896
MEAN_MOTION    = 14.11862245
ECCENTRICITY   = .05487046
INCLINATION    = 30.3547
RA_OF_ASC_NODE = 199.4987
ARG_OF_PERICENTER = 226.5193
MEAN_ANOMALY   = 128.8509

EPHEMERIS_TYPE = 0
CLASSIFICATION_TYPE = U
NORAD_CAT_ID   = 694
ELEMENT_SET_NO = 999
REV_AT_EPOCH   = 12241
BSTAR          = .34077105E-3
MEAN_MOTION_DOT = .2899E-4
MEAN_MOTION_DDOT = 0

CCSDS_OMM_VERS = 2.0
CREATION_DATE  = 
ORIGINATOR     = 

OBJECT_NAME    = THOR AGENA D R/B
OBJECT_ID      = 1964-002A
CENTER_NAME    = EARTH
REF_FRAME      = TEME
TIME_SYSTEM    = UTC
MEAN_ELEMENT_THEORY = SGP/SGP4

EPOCH          = 2026-01-03T13:29:42.918720
MEAN_MOTION    = 14.33975658
ECCENTRICITY   = .00338511
INCLINATION    = 99.1215
RA_OF_ASC_NODE = 13.3609
ARG_OF_PERICENTER = 88.1182
MEAN_ANOMALY   = 272.3878

EPHEMERIS_TYPE = 0
CLASSIFICATION_TYPE = U
NORAD_CAT_ID   = 733
ELEMENT_SET_NO = 999
REV_AT_EPOCH   = 22896
BSTAR          = .18903672E-3
MEAN_MOTION_DOT = .482E-5
MEAN_MOTION_DDOT = 0

CCSDS_OMM_VERS = 2.0
CREATION_DATE  = 
ORIGINATOR     = 

OBJECT_NAME    = SL-3 R/B
OBJECT_ID      = 1964-053B
CENTER_NAME    = EARTH
REF_FRAME      = TEME
TIME_SYSTEM    = UTC
MEAN_ELEMENT_THEORY = SGP/SGP4

EPOCH          = 2026-01-03T14:37:35.355072
MEAN_MOTION    = 14.61296495
ECCENTRICITY   = .0075772
INCLINATION    = 65.0763
RA_OF_ASC_NODE = 162.0262
ARG_OF_PERICENTER = 313.0771
MEAN_ANOMALY   = 46.4002

EPHEMERIS_TYPE = 0
CLASSIFICATION_TYPE = U
NORAD_CAT_ID   = 877
ELEMENT_SET_NO = 999
REV_AT_EPOCH   = 25728
BSTAR          = .13596495E-3
MEAN_MOTION_DOT = .575E-5
MEAN_MOTION_DDOT = 0

CCSDS_OMM_VERS = 2.0
CREATION_DATE  = 
ORIGINATOR     = 

OBJECT_NAME    = SL-8 R/B
OBJECT_ID      = 1967-045B
CENTER_NAME    = EARTH
REF_FRAME      = TEME
TIME_SYSTEM    = UTC
MEAN_ELEMENT_THEORY = SGP/SGP4

EPOCH          = 2026-01-03T14:13:30.025632
MEAN_MOTION    = 14.45563853
ECCENTRICITY   = .00632264
INCLINATION    = 74.0118
RA_OF_ASC_NODE = 109.6579
ARG_OF_PERICENTER = 133.4329
MEAN_ANOMALY   = 227.2115

EPHEMERIS_TYPE = 0
CLASSIFICATION_TYPE = U
NORAD_CAT_ID   = 2802
ELEMENT_SET_NO = 999
REV_AT_EPOCH   = 7961
BSTAR          = .20140856E-3
MEAN_MOTION_DOT = .701E-5
MEAN_MOTION_DDOT = 0

CCSDS_OMM_VERS = 2.0
CREATION_DATE  = 
ORIGINATOR     = 

OBJECT_NAME    = SL-8 R/B
OBJECT_ID      = 1968-040B
CENTER_NAME    = EARTH
REF_FRAME      = TEME
TIME_SYSTEM    = UTC
MEAN_ELEMENT_THEORY = SGP/SGP4

EPOCH          = 2026-01-03T14:40:36.131520
MEAN_MOTION    = 15.02716513
ECCENTRICITY   = .00262631
INCLINATION    = 74.0323
RA_OF_ASC_NODE = 86.6160
ARG_OF_PERICENTER = 285.0766
MEAN_ANOMALY   = 74.7516

EPHEMERIS_TYPE = 0
CLASSIFICATION_TYPE = U
NORAD_CAT_ID   = 3230
ELEMENT_SET_NO = 999
REV_AT_EPOCH   = 8023
BSTAR          = .41932168E-3
MEAN_MOTION_DOT = .5604E-4
MEAN_MOTION_DDOT = 0

CCSDS_OMM_VERS = 2.0
CREATION_DATE  = 
ORIGINATOR     = 

OBJECT_NAME    = OAO 2
OBJECT_ID      = 1968-110A
CENTER_NAME    = EARTH
REF_FRAME      = TEME
TIME_SYSTEM    = UTC
MEAN_ELEMENT_THEORY = SGP/SGP4

EPOCH          = 2026-01-03T10:49:11.913312
MEAN_MOTION    = 14.47261017
ECCENTRICITY   = .00051002
INCLINATION    = 34.9933
RA_OF_ASC_NODE = 269.4565
ARG_OF_PERICENTER = 28.2910
MEAN_ANOMALY   = 331.8057

EPHEMERIS_TYPE = 0
CLASSIFICATION_TYPE = U
NORAD_CAT_ID   = 3597
ELEMENT_SET_NO = 999
REV_AT_EPOCH   = 964
BSTAR          = .15071256E-3
MEAN_MOTION_DOT = .54E-5
MEAN_MOTION_DDOT = 0

CCSDS_OMM_VERS = 2.0
CREATION_DATE  = 
ORIGINATOR     = 

OBJECT_NAME    = ISIS 1
OBJECT_ID      = 1969-009A
CENTER_NAME    = EARTH
REF_FRAME      = TEME
TIME_SYSTEM    = UTC
MEAN_ELEMENT_THEORY = SGP/SGP4

EPOCH          = 2026-01-03T09:25:00.420672
MEAN_MOTION    = 11.30369592
ECCENTRICITY   = .17073868
INCLINATION    = 88.4507
RA_OF_ASC_NODE = 162.4287
ARG_OF_PERICENTER = 220.9472
MEAN_ANOMALY   = 125.0277

EPHEMERIS_TYPE = 0
CLASSIFICATION_TYPE = U
NORAD_CAT_ID   = 3669
ELEMENT_SET_NO = 999
REV_AT_EPOCH   = 34115
BSTAR          = .4134853E-3
MEAN_MOTION_DOT = .578E-5
MEAN_MOTION_DDOT = 0

CCSDS_OMM_VERS = 2.0
CREATION_DATE  = 
ORIGINATOR     = 

OBJECT_NAME    = SERT 2
OBJECT_ID      = 1970-009A
CENTER_NAME    = EARTH
REF_FRAME      = TEME
TIME_SYSTEM    = UTC
MEAN_ELEMENT_THEORY = SGP/SGP4

EPOCH          = 2026-01-03T15:02:02.654304
MEAN_MOTION    = 13.58721594
ECCENTRICITY   = .00046905
INCLINATION    = 99.2678
RA_OF_ASC_NODE = 310.3083
ARG_OF_PERICENTER = 340.7327
MEAN_ANOMALY   = 192.0924

EPHEMERIS_TYPE = 0
CLASSIFICATION_TYPE = U
NORAD_CAT_ID   = 4327
ELEMENT_SET_NO = 999
REV_AT_EPOCH   = 77105
BSTAR          = .15647862E-3
MEAN_MOTION_DOT = .73E-6
MEAN_MOTION_DDOT = 0

CCSDS_OMM_VERS = 2.0
CREATION_DATE  = 
ORIGINATOR     = 

OBJECT_NAME    = SL-3 R/B
OBJECT_ID      = 1971-028B
CENTER_NAME    = EARTH
REF_FRAME      = TEME
TIME_SYSTEM    = UTC
MEAN_ELEMENT_THEORY = SGP/SGP4

EPOCH          = 2026-01-03T14:48:21.024864
MEAN_MOTION    = 15.56043057
ECCENTRICITY   = .00185196
INCLINATION    = 81.2388
RA_OF_ASC_NODE = 132.0816
ARG_OF_PERICENTER = 162.2337
MEAN_ANOMALY   = 197.9565

EPHEMERIS_TYPE = 0
CLASSIFICATION_TYPE = U
NORAD_CAT_ID   = 5118
ELEMENT_SET_NO = 999
REV_AT_EPOCH   = 97853
BSTAR          = .70358359E-3
MEAN_MOTION_DOT = .49628E-3
MEAN_MOTION_DDOT = 0

CCSDS_OMM_VERS = 2.0
CREATION_DATE  = 
ORIGINATOR     = 

OBJECT_NAME    = ASTEX 1
OBJECT_ID      = 1971-089A
CENTER_NAME    = EARTH
REF_FRAME      = TEME
TIME_SYSTEM    = UTC
MEAN_ELEMENT_THEORY = SGP/SGP4

EPOCH          = 2026-01-03T15:21:56.742048
MEAN_MOTION    = 14.50676447
ECCENTRICITY   = .00138312
INCLINATION    = 92.7155
RA_OF_ASC_NODE = 130.7070
ARG_OF_PERICENTER = 309.4761
MEAN_ANOMALY   = 50.5221

EPHEMERIS_TYPE = 0
CLASSIFICATION_TYPE = U
NORAD_CAT_ID   = 5560
ELEMENT_SET_NO = 999
REV_AT_EPOCH   = 85287
BSTAR          = .29617709E-3
MEAN_MOTION_DOT = .1163E-4
MEAN_MOTION_DDOT = 0

CCSDS_OMM_VERS = 2.0
CREATION_DATE  = 
ORIGINATOR     = 

OBJECT_NAME    = SL-8 R/B
OBJECT_ID      = 1971-119B
CENTER_NAME    = EARTH
REF_FRAME      = TEME
TIME_SYSTEM    = UTC
MEAN_ELEMENT_THEORY = SGP/SGP4

EPOCH          = 2026-01-03T13:28:28.256160
MEAN_MOTION    = 14.36296175
ECCENTRICITY   = .05573718
INCLINATION    = 73.8902
RA_OF_ASC_NODE = 297.3083
ARG_OF_PERICENTER = 277.1860
MEAN_ANOMALY   = 76.6274

EPHEMERIS_TYPE = 0
CLASSIFICATION_TYPE = U
NORAD_CAT_ID   = 5730
ELEMENT_SET_NO = 999
REV_AT_EPOCH   = 64613
BSTAR          = .68952257E-3
MEAN_MOTION_DOT = .13308E-3
MEAN_MOTION_DDOT = 0

CCSDS_OMM_VERS = 2.0
CREATION_DATE  = 
ORIGINATOR     = 

OBJECT_NAME    = OAO 3 (COPERNICUS)
OBJECT_ID      = 1972-065A
CENTER_NAME    = EARTH
REF_FRAME      = TEME
TIME_SYSTEM    = UTC
MEAN_ELEMENT_THEORY = SGP/SGP4

EPOCH          = 2026-01-03T07:23:01.626144
MEAN_MOTION    = 14.59931576
ECCENTRICITY   = .0006762
INCLINATION    = 35.0070
RA_OF_ASC_NODE = 309.8049
ARG_OF_PERICENTER = 339.6672
MEAN_ANOMALY   = 182.4080

EPHEMERIS_TYPE = 0
CLASSIFICATION_TYPE = U
NORAD_CAT_ID   = 6153
ELEMENT_SET_NO = 999
REV_AT_EPOCH   = 83663
BSTAR          = .18057E-3
MEAN_MOTION_DOT = .857E-5
MEAN_MOTION_DDOT = 0

