ATLAS CENTAUR 2         
1 00694U 63047A   26003.57164089  .00002899  00000+0  34077-3 0  9991
2 00694  30.3547 199.4987 0548704 226.5193 128.8509 14.11862245122413
THOR AGENA D R/B        
1 00733U 64002A   26003.56230230  .00000482  00000+0  18904-3 0  9995
2 00733  99.1215  13.3609 0033851  88.1182 272.3878 14.33975658228967
SL-3 R/B                
1 00877U 64053B   26003.60943698  .00000575  00000+0  13596-3 0  9999
2 00877  65.0763 162.0262 0075772 313.0771  46.4002 14.61296495257287
SL-8 R/B                
1 02802U 67045B   26003.59270863  .00000701  00000+0  20141-3 0  9993
2 02802  74.0118 109.6579 0063226 133.4329 227.2115 14.45563853 79613
SL-8 R/B                
1 03230U 68040B   26003.61152930  .00005604  00000+0  41932-3 0  9990
2 03230  74.0323  86.6160 0026263 285.0766  74.7516 15.02716513 80233
OAO 2                   
1 03597U 68110A   26003.45083233  .00000540  00000+0  15071-3 0  9994
2 03597  34.9933 269.4565 0005100  28.2910 331.8057 14.47261017  9641
ISIS 1                  
1 03669U 69009A   26003.39236598  .00000578  00000+0  41349-3 0  9997
2 03669  88.4507 162.4287 1707386 220.9472 125.0277 11.30369592341153
SERT 2                  
1 04327U 70009A   26003.62641961  .00000073  00000+0  15648-3 0  9994
2 04327  99.2678 310.3083 0004690 340.7327 192.0924 13.58721594771054
SL-3 R/B                
1 05118U 71028B   26003.61691001  .00049628  00000+0  70358-3 0  9992
2 05118  81.2388 132.0816 0018519 162.2337 197.9565 15.56043057978536
ASTEX 1                 
1 05560U 71089A   26003.64024007  .00001163  00000+0  29618-3 0  9994
2 05560  92.7155 130.7070 0013831 309.4761  50.5221 14.50676447852870
SL-8 R/B                
1 05730U 71119B   26003.56143815  .00013308  00000+0  68952-3 0  9995
2 05730  73.8902 297.3083 0557371 277.1860  76.6274 14.36296175646133
OAO 3 (COPERNICUS)      
1 06153U 72065A   26003.30765771  .00000857  00000+0  18057-3 0  9995
2 06153  35.0070 309.8049 0006762 339.6672 182.4080 14.59931576836631
